full_name,a,e,i,om,w,q,ad,per_y,data_arc,condition_code,n_obs_used,n_del_obs_used,n_dop_obs_used,H
"       (2012 DZ13)",1.134598394502072,.3905862541666525,9.307178338198122,336.0702468311389,283.0891972495572,.6914398576100098,1.577756931394134,1.20856899712096,11,8,68,,,24.1
"       (2012 DS30)",1.093212945399746,.09193888052319849,9.563798285642507,332.4449839893973,228.8997138348656,.9927041710262249,1.193721719773267,1.14305032365192,4,7,45,,,26.0
"       (2012 DE31)",1.150187962342919,.3728182373501202,29.68861069246242,141.6496516101485,262.2038428265293,.7213769136009054,1.578999011084932,1.23356326934862,22,7,42,,,21.9
"       (2012 DF31)",1.107588302555408,.4746361173137959,1.571973744701401,109.3491588617264,165.5056032260362,.5818868910483314,1.633289714062485,1.16567033126657,2574,0,48,,,24.4
"       (2012 DM32)",1.051958743639824,.1719768855096595,12.88283123057416,155.4231886660475,274.7107941265172,.8710461552239925,1.232871332055655,1.07896228404691,3,6,56,,,26.2
"       (2012 DS32)",1.247605673261141,.3043356427412315,7.541149518949247,340.2423414008817,243.1559288624092,.867914798801605,1.627296547720678,1.39355532038844,3,7,62,,,26.3
"       (2012 DY32)",1.084121090887458,.1659478271836911,9.536745417135709,158.3575363170137,259.9377856395984,.9042135514506718,1.264028630324245,1.12882051185097,45,6,64,,,22.7
"       (2012 DA33)",1.116165283690102,.504540225573377,6.484109613173223,345.7419517177358,52.52591144401282,.5530149996799257,1.679315567700278,1.17923664885981,19,7,30,,,23.4
"       (2012 DJ54)",1.176112064815944,.2299910903954667,1.989934347630276,336.8570015137136,120.0874921449562,.905616768601661,1.446607361030227,1.27550234058397,17,6,29,,,28.6
"       (2012 DT60)",1.19179766170329,.1125371824228741,7.483079386471514,353.8647220398655,73.85450391241305,1.057676110837032,1.325919212569548,1.30110395130942,27,6,36,,,22.1
"       (2012 DW60)",1.111717610904975,.1680835412531325,4.821135957498693,353.6447431260854,237.8471240949251,.9248561779905951,1.298579043819356,1.17219517778467,2706,0,66,0,2,26.5
"       (2012 EB)",1.076112893930765,.07834239095026224,15.8241761018387,344.4797006731829,115.0857295957196,.9918076368878233,1.160418150973707,1.11633606348018,14,7,71,,,23.8
"       (2012 EC)",1.151649493971648,.1374253071429416,.9134562694260945,306.0787476528214,333.9062202537169,.9933837085415808,1.309915279401715,1.23591522972489,2080,0,171,,,23.3
"       (2012 EF5)",1.223268770274631,.2611591222616669,47.82077996239578,164.0617182492326,69.84232966935774,.9038009719395997,1.542736568609662,1.35297893492306,12,8,31,,,21.3
"       (2012 EL8)",1.188299264393854,.1491925769652319,4.253575211347795,358.3477270650425,166.0796181007362,1.011013834933045,1.365584693854663,1.29537927577684,1,7,22,,,28.3
"       (2012 EP10)",1.050289305814944,.1160552853922618,1.033011116606162,348.0064821541801,105.7987466164727,.9283976806841499,1.172180930945737,1.07639486546352,13,6,31,,,29.1
"       (2012 FN)",1.221448703783289,.1870690736281031,3.233225757444992,356.9089059224142,147.9150705557848,.9929534262823021,1.449943981284276,1.34996047060794,,9,17,,,29.2
"       (2012 FX13)",1.044009339857387,.135378198469125,16.26707910383308,357.7141363217374,55.38315008243728,.9026732362425536,1.185345443472221,1.06675522366333,10,8,20,,,25.2
"       (2012 FS23)",1.207519790237553,.6317508681941134,37.92646170402982,354.7637096946507,315.6899133382207,.4446681143934051,1.9703714660817,1.32693481248892,9,9,50,,,20.8
"       (2012 FN35)",1.16769090190518,.2714347780946071,9.311577673848888,6.950719002367513,71.60070234460854,.850738981063456,1.484642822746904,1.26182767076991,7,9,19,,,24.9
"       (2012 FQ35)",1.290725123259752,.2181580879574349,18.05537550891409,182.4949379109704,340.4197407703683,1.00914299829078,1.572307248228724,1.46642159454148,18,7,158,,,23.6
"       (2012 FS35)",1.098913253635177,.1184418477074104,2.33744233571429,186.546337666126,42.27765565197286,.9687559374044646,1.229070569865889,1.15200222850381,1,5,42,,,30.2
"       (2012 FV35)",1.295682649741634,.3595626924818932,5.818196563662365,194.1199643840845,263.6045811405109,.8298035075984581,1.761561791884809,1.4748782363944,7,9,15,,,25.1
"       (2012 FX35)",1.073117627021358,.06565560594640478,10.83092544181795,183.2360957197438,343.0985403681552,1.002661438967503,1.143573815075214,1.11167847132518,3,6,63,,,25.8
"       (2012 FP52)",1.140064031398281,.1137267095756387,18.67766331523906,186.3423487463305,324.9052359462746,1.010408300401817,1.269719762394745,1.21731246285401,16,7,106,,,24.6
"       (2012 FD58)",1.114012883168132,.385624128907926,15.58604830237228,204.809855168699,136.8938186069275,.6844226355042136,1.543603130832049,1.17582725389652,2531,2,23,,,21.4
"       (2012 FH58)",1.190535415686786,.300617816098256,7.683340263176974,10.69000963383999,258.3656536041806,.8326392590353947,1.548431572338177,1.29903747844131,4,8,25,,,27.1
"       (2012 FS62)",1.232223501848893,.3960707656040914,13.43158595769846,37.30632099936486,313.9363745420367,.7441757960762473,1.720271207621538,1.36786246949848,1478,1,64,,,20.2
"       (2012 GE)",1.123822755883475,.3724998909600742,3.479166832679881,14.13828952494495,79.57576489541387,.7051989018584304,1.542446609908519,1.19139270032677,2,7,25,,,26.8
"       (2012 GA5)",1.141748332379377,.06594212705037494,7.299524065662009,192.4827598027599,108.6903917502138,1.066459018786063,1.217037645972692,1.22001109767437,6129,0,40,,,24.2
"       (2012 GV11)",1.044955908920989,.2156531559248489,5.403707604922408,164.6606610636764,217.5376790726015,.8196078693598584,1.270303948482119,1.06820634047598,666,3,82,,,22.3
"       (2012 HM)",1.175265586506962,.1975736609369199,7.148624274017971,39.01962803727542,230.1984376061913,.9430640620076052,1.407467111006319,1.27412557028629,11,3,527,0,3,24.1
"       (2012 HN)",1.049528310422335,.232624265396145,25.13100034801603,201.9776952204114,263.0351001645299,.8053825581978817,1.293674062646787,1.07522521182561,5,8,21,,,24.0
"       (2012 HW1)",1.060764772715772,.6614651031556489,49.57104552256903,207.820412220429,163.6915349270073,.3591058929074553,1.762423652524088,1.09253871444274,370,2,102,,,19.9
"       (2012 HA2)",1.071302120788614,.1430630010292609,38.47105154863961,199.5727138021176,211.914607930349,.9180384243795828,1.224565817197644,1.10885854933846,429,2,53,,,21.2
"       (2012 HF2)",1.192026520342742,.3677328176155298,12.4301367146598,35.59868423731978,80.08454448485612,.7536792493446701,1.630373791340815,1.30147874207826,5,8,37,,,24.7
"       (2012 HG2)",1.188989780047595,.1817147949582054,.1114599963231321,143.487341935896,26.25936069790308,.9729327459588447,1.405046814136346,1.29650854888118,39,5,208,,,27.0
"       (2012 HO2)",1.234510758050666,.3947792654468006,26.35057764202785,211.6848488360356,226.1912587081968,.7471515078012509,1.721870008300081,1.37167278067472,2592,1,68,,,20.4
"       (2012 HO8)",1.151214735900062,.1018140068233321,24.00168471598971,211.7004670272368,310.0416117356118,1.034004950924013,1.268424520876112,1.23521544205899,3,8,32,,,24.2
"       (2012 HO13)",1.211280713492008,.162183655601125,38.0568410105061,36.57668432514841,271.5935222252654,1.014830779418735,1.40773064756528,1.33313891430164,9,8,44,,,23.2
"       (2012 HP15)",1.135665479238551,.3484512571881954,29.50872457314207,201.0374228829953,131.0878512067774,.7399414152526432,1.531389543224458,1.21027437857798,2184,1,46,,,21.9
"       (2012 HD20)",1.181016112005539,.2716216644951859,4.693672668382987,87.11833784560815,32.10075312954935,.8602265498669618,1.501805674144117,1.28348836484876,1506,2,79,,,22.3
"       (2012 HC25)",1.209753941328812,.1881041463151676,6.402158703911614,198.9888783270386,317.2689541757574,.9821942089437463,1.437313673713877,1.33061915421488,3,9,11,,,25.8
"       (2012 HH31)",1.19748089477374,.1372669997653166,3.291094135474856,84.694483096783,75.33011316042567,1.033106285071862,1.361855504475618,1.31042174779738,30,7,38,,,23.8
"       (2012 HK31)",1.073756428485771,.1207347652493116,2.205183818016665,222.6698343798951,96.69206247879855,.9441166981576021,1.20339615881394,1.11267125276365,30,7,65,,,25.4
"       (2012 HZ33)",1.197450174230386,.2102900343090032,23.87734014390059,54.91925508501076,231.5602073589256,.9456383360081566,1.449262012452616,1.31037132117668,1677,0,165,,,20.4
"       (2012 JN4)",1.195279341853498,.1389685886284416,20.98768242257007,49.77930211077025,127.2158965873589,1.029173058699385,1.361385625007612,1.30680961948698,11,7,72,,,23.5
"       (2012 JR4)",1.252209575459326,.1392939594127987,15.37530011735721,56.24291071908341,113.4589611841492,1.077784345678977,1.426634805239675,1.4012761585251,2556,1,53,,,24.0
"       (2012 JS17)",1.217187390666677,.4196848446030511,15.64495150168333,63.98883623939176,307.4360153889426,.7063522897619393,1.728022491571414,1.34290215044596,1738,1,71,,,21.0
"       (2012 KA4)",1.100252889164639,.7800459788731753,5.808213535486614,214.9942902495923,237.3900567245276,.242005047228169,1.95850073110111,1.15410940122008,2573,0,97,,,21.1
"       (2012 KB4)",1.093011452344397,.06070044770490926,6.327657348635211,60.49008052912517,277.6781135127945,1.026665167840499,1.159357736848295,1.14273432013651,12,7,18,,,25.3
"       (2012 KC6)",1.240770843927491,.2463674984106489,11.31930614058632,195.4002008471487,337.9785329861145,.9350852350082052,1.546456452846776,1.38211942829608,4017,0,172,,,21.7
"       (2012 KO11)",1.062107388016004,.1239810644285371,16.33860203206095,59.11975689656416,289.2477198730259,.9304261835123663,1.193788592519641,1.09461361825753,8,7,25,,,24.6
"       (2012 KT12)",1.251452539569865,.1979398287596236,1.718695058042136,235.6275605407838,25.29604789149555,1.00374023818661,1.49916484095312,1.4000056172165,2551,0,36,,,26.3
"       (2012 KC45)",1.177752917926387,.1813705260107,8.654740266536903,247.7937955320435,310.0527983513676,.9641432516914418,1.391362584161333,1.27817254760456,1,7,13,,,29.4
